[{"OBJECT_NAME":"TIANYAN 02","OBJECT_ID":"2019-093D","EPOCH":"2026-03-09T23:02:03.462720","MEAN_MOTION":15.03854369,"ECCENTRICITY":0.0013821,"INCLINATION":97.7892,"RA_OF_ASC_NODE":162.9238,"ARG_OF_PERICENTER":3.6432,"MEAN_ANOMALY":356.4891,"EPHEMERIS_TYPE":0,"CLASSIFICATION_TYPE":"U","NORAD_CAT_ID":44882,"ELEMENT_SET_NO":999,"REV_AT_EPOCH":33769,"BSTAR":0.0006063204,"MEAN_MOTION_DOT":8.303e-5,"MEAN_MOTION_DDOT":0},{"OBJECT_NAME":"STARLINK-30160","OBJECT_ID":"2023-105M","EPOCH":"2026-03-09T22:00:01.999584","MEAN_MOTION":15.05884587,"ECCENTRICITY":7.91e-5,"INCLINATION":43.0005,"RA_OF_ASC_NODE":260.3896,"ARG_OF_PERICENTER":326.1958,"MEAN_ANOMALY":83.8385,"EPHEMERIS_TYPE":0,"CLASSIFICATION_TYPE":"U","NORAD_CAT_ID":57441,"ELEMENT_SET_NO":999,"REV_AT_EPOCH":558,"BSTAR":0.0048293503,"MEAN_MOTION_DOT":0.00071872,"MEAN_MOTION_DDOT":0}]
